{"type": "FeatureCollection", "features": [ {"type": "Feature", "properties": {"norad_id": 34547, "name": "COSMOS 2251 DEB", "group": "cosmos-2251-debris", "lat": 52.98468170465639, "lon": -122.19927233635727, "alt_km": 638.1443505319121, "timestamp": "2025-12-23T07:45:09.799662+00:00", "meta": {"OBJECT_NAME": "COSMOS 2251 DEB", "OBJECT_ID": "1993-036UH", "EPOCH": "2025-12-22T16:31:04.600416", "MEAN_MOTION": 14.72546712, "ECCENTRICITY": 0.00162588, "INCLINATION": 74.032, "RA_OF_ASC_NODE": 81.3553, "ARG_OF_PERICENTER": 159.497, "MEAN_ANOMALY": 200.6858, "EPHEMERIS_TYPE": 0, "CLASSIFICATION_TYPE": "U", "NORAD_CAT_ID": 34547, "ELEMENT_SET_NO": 999, "REV_AT_EPOCH": 88668, "BSTAR": 0.0017982346, "MEAN_MOTION_DOT": 0.00011442, "MEAN_MOTION_DDOT": 0}, "tle": {"line1": "1 34547U 93036UH  25356.68824769  .00011442  00000+0  17982-2 0  9995", "line2": "2 34547  74.0320  81.3553 0016258 159.4970 200.6858 14.72546712886687"}}, "geometry": {"type": "Point", "coordinates": [-122.19927233635727, 52.98468170465639]}}, {"type": "Feature", "properties": {"norad_id": 34553, "name": "COSMOS 2251 DEB", "group": "cosmos-2251-debris", "lat": -1.1088497669965924, "lon": -7.926052401034128, "alt_km": 697.7195013351256, "timestamp": "2025-12-23T07:45:09.799672+00:00", "meta": {"OBJECT_NAME": "COSMOS 2251 DEB", "OBJECT_ID": "1993-036UP", "EPOCH": "2025-12-21T12:14:40.588800", "MEAN_MOTION": 14.57796029, "ECCENTRICITY": 0.00191028, "INCLINATION": 74.0239, "RA_OF_ASC_NODE": 175.2044, "ARG_OF_PERICENTER": 251.8858, "MEAN_ANOMALY": 139.3143, "EPHEMERIS_TYPE": 0, "CLASSIFICATION_TYPE": "U", "NORAD_CAT_ID": 34553, "ELEMENT_SET_NO": 999, "REV_AT_EPOCH": 88224, "BSTAR": 0.0008261884, "MEAN_MOTION_DOT": 3.761e-05, "MEAN_MOTION_DDOT": 0}, "tle": {"line1": "1 34553U 93036UP  25355.51019200  .00003761  00000+0  82619-3 0  9994", "line2": "2 34553  74.0239 175.2044 0019102 251.8858 139.3143 14.57796029882248"}}, "geometry": {"type": "Point", "coordinates": [-7.926052401034128, -1.1088497669965924]}}, {"type": "Feature", "properties": {"norad_id": 34554, "name": "COSMOS 2251 DEB", "group": "cosmos-2251-debris", "lat": -66.450028916054, "lon": 140.54743692011323, "alt_km": 771.3009207412351, "timestamp": "2025-12-23T07:45:09.799682+00:00", "meta": {"OBJECT_NAME": "COSMOS 2251 DEB", "OBJECT_ID": "1993-036UQ", "EPOCH": "2025-12-22T19:02:12.080832", "MEAN_MOTION": 14.37957349, "ECCENTRICITY": 0.00234316, "INCLINATION": 74.0394, "RA_OF_ASC_NODE": 280.4802, "ARG_OF_PERICENTER": 340.7877, "MEAN_ANOMALY": 50.2412, "EPHEMERIS_TYPE": 0, "CLASSIFICATION_TYPE": "U", "NORAD_CAT_ID": 34554, "ELEMENT_SET_NO": 999, "REV_AT_EPOCH": 87900, "BSTAR": 0.00027355756, "MEAN_MOTION_DOT": 8.03e-06, "MEAN_MOTION_DDOT": 0}, "tle": {"line1": "1 34554U 93036UQ  25356.79319538  .00000803  00000+0  27356-3 0  9994", "line2": "2 34554  74.0394 280.4802 0023431 340.7877  50.2412 14.37957349879003"}}, "geometry": {"type": "Point", "coordinates": [140.54743692011323, -66.450028916054]}}, {"type": "Feature", "properties": {"norad_id": 34556, "name": "COSMOS 2251 DEB", "group": "cosmos-2251-debris", "lat": 43.43048520275813, "lon": -91.69190569159113, "alt_km": 627.2585051312508, "timestamp": "2025-12-23T07:45:09.799693+00:00", "meta": {"OBJECT_NAME": "COSMOS 2251 DEB", "OBJECT_ID": "1993-036US", "EPOCH": "2025-12-22T06:53:07.587168", "MEAN_MOTION": 14.78074714, "ECCENTRICITY": 0.000664, "INCLINATION": 74.0163, "RA_OF_ASC_NODE": 106.0885, "ARG_OF_PERICENTER": 165.6456, "MEAN_ANOMALY": 217.5368, "EPHEMERIS_TYPE": 0, "CLASSIFICATION_TYPE": "U", "NORAD_CAT_ID": 34556, "ELEMENT_SET_NO": 999, "REV_AT_EPOCH": 88470, "BSTAR": 0.002445239, "MEAN_MOTION_DOT": 0.00017698, "MEAN_MOTION_DDOT": 0}, "tle": {"line1": "1 34556U 93036US  25356.28689337  .00017698  00000+0  24452-2 0  9990", "line2": "2 34556  74.0163 106.0885 0006640 165.6456 217.5368 14.78074714884705"}}, "geometry": {"type": "Point", "coordinates": [-91.69190569159113, 43.43048520275813]}}, {"type": "Feature", "properties": {"norad_id": 34560, "name": "COSMOS 2251 DEB", "group": "cosmos-2251-debris", "lat": 8.575239983757617, "lon": -60.95993540868916, "alt_km": 646.6534566904274, "timestamp": "2025-12-23T07:45:09.799703+00:00", "meta": {"OBJECT_NAME": "COSMOS 2251 DEB", "OBJECT_ID": "1993-036UW", "EPOCH": "2025-12-21T19:39:42.022368", "MEAN_MOTION": 14.72348108, "ECCENTRICITY": 0.00139755, "INCLINATION": 74.0172, "RA_OF_ASC_NODE": 124.4457, "ARG_OF_PERICENTER": 206.7479, "MEAN_ANOMALY": 276.7329, "EPHEMERIS_TYPE": 0, "CLASSIFICATION_TYPE": "U", "NORAD_CAT_ID": 34560, "ELEMENT_SET_NO": 999, "REV_AT_EPOCH": 88385, "BSTAR": 0.0017282394, "MEAN_MOTION_DOT": 0.00010939, "MEAN_MOTION_DDOT": 0}, "tle": {"line1": "1 34560U 93036UW  25355.81923637  .00010939  00000+0  17282-2 0  9991", "line2": "2 34560  74.0172 124.4457 0013975 206.7479 276.7329 14.72348108883854"}}, "geometry": {"type": "Point", "coordinates": [-60.95993540868916, 8.575239983757617]}}, {"type": "Feature", "properties": {"norad_id": 34563, "name": "COSMOS 2251 DEB", "group": "cosmos-2251-debris", "lat": 34.61780742208128, "lon": -164.6542579948301, "alt_km": 739.149055036688, "timestamp": "2025-12-23T07:45:09.799712+00:00", "meta": {"OBJECT_NAME": "COSMOS 2251 DEB", "OBJECT_ID": "1993-036UZ", "EPOCH": "2025-12-22T13:37:02.712864", "MEAN_MOTION": 14.46538441, "ECCENTRICITY": 0.00139208, "INCLINATION": 74.0365, "RA_OF_ASC_NODE": 185.3597, "ARG_OF_PERICENTER": 278.8419, "MEAN_ANOMALY": 143.9121, "EPHEMERIS_TYPE": 0, "CLASSIFICATION_TYPE": "U", "NORAD_CAT_ID": 34563, "ELEMENT_SET_NO": 999, "REV_AT_EPOCH": 88339, "BSTAR": 0.00036718775, "MEAN_MOTION_DOT": 1.297e-05, "MEAN_MOTION_DDOT": 0}, "tle": {"line1": "1 34563U 93036UZ  25356.56739251  .00001297  00000+0  36719-3 0  9998", "line2": "2 34563  74.0365 185.3597 0013920 278.8419 143.9121 14.46538441883392"}}, "geometry": {"type": "Point", "coordinates": [-164.6542579948301, 34.61780742208128]}}, {"type": "Feature", "properties": {"norad_id": 34564, "name": "COSMOS 2251 DEB", "group": "cosmos-2251-debris", "lat": -44.548503708998524, "lon": -157.93936383784379, "alt_km": 748.8185852004672, "timestamp": "2025-12-23T07:45:09.799723+00:00", "meta": {"OBJECT_NAME": "COSMOS 2251 DEB", "OBJECT_ID": "1993-036VA", "EPOCH": "2025-12-22T10:35:59.692704", "MEAN_MOTION": 14.40705848, "ECCENTRICITY": 0.00193597, "INCLINATION": 74.0315, "RA_OF_ASC_NODE": 220.062, "ARG_OF_PERICENTER": 322.6148, "MEAN_ANOMALY": 101.2353, "EPHEMERIS_TYPE": 0, "CLASSIFICATION_TYPE": "U", "NORAD_CAT_ID": 34564, "ELEMENT_SET_NO": 999, "REV_AT_EPOCH": 88146, "BSTAR": 0.00021971586, "MEAN_MOTION_DOT": 6.77e-06, "MEAN_MOTION_DDOT": 0}, "tle": {"line1": "1 34564U 93036VA  25356.44166311  .00000677  00000+0  21972-3 0  9993", "line2": "2 34564  74.0315 220.0620 0019359 322.6148 101.2353 14.40705848881462"}}, "geometry": {"type": "Point", "coordinates": [-157.93936383784379, -44.548503708998524]}}, {"type": "Feature", "properties": {"norad_id": 34567, "name": "COSMOS 2251 DEB", "group": "cosmos-2251-debris", "lat": 72.87998075129207, "lon": -153.98653959065987, "alt_km": 835.4697359621832, "timestamp": "2025-12-23T07:45:09.799733+00:00", "meta": {"OBJECT_NAME": "COSMOS 2251 DEB", "OBJECT_ID": "1993-036VD", "EPOCH": "2025-12-22T16:16:54.466752", "MEAN_MOTION": 14.2402716, "ECCENTRICITY": 0.00741599, "INCLINATION": 74.0409, "RA_OF_ASC_NODE": 138.8924, "ARG_OF_PERICENTER": 211.0276, "MEAN_ANOMALY": 170.0812, "EPHEMERIS_TYPE": 0, "CLASSIFICATION_TYPE": "U", "NORAD_CAT_ID": 34567, "ELEMENT_SET_NO": 999, "REV_AT_EPOCH": 87266, "BSTAR": 0.00021099929, "MEAN_MOTION_DOT": 4.73e-06, "MEAN_MOTION_DDOT": 0}, "tle": {"line1": "1 34567U 93036VD  25356.67840818  .00000473  00000+0  21100-3 0  9999", "line2": "2 34567  74.0409 138.8924 0074159 211.0276 170.0812 14.24027160872666"}}, "geometry": {"type": "Point", "coordinates": [-153.98653959065987, 72.87998075129207]}}, {"type": "Feature", "properties": {"norad_id": 34569, "name": "COSMOS 2251 DEB", "group": "cosmos-2251-debris", "lat": -72.45080761717779, "lon": 113.77732811118781, "alt_km": 809.8421497749805, "timestamp": "2025-12-23T07:45:09.799743+00:00", "meta": {"OBJECT_NAME": "COSMOS 2251 DEB", "OBJECT_ID": "1993-036VF", "EPOCH": "2025-12-22T20:37:39.103968", "MEAN_MOTION": 14.24776526, "ECCENTRICITY": 0.01577718, "INCLINATION": 73.9894, "RA_OF_ASC_NODE": 179.8374, "ARG_OF_PERICENTER": 5.9127, "MEAN_ANOMALY": 56.4739, "EPHEMERIS_TYPE": 0, "CLASSIFICATION_TYPE": "U", "NORAD_CAT_ID": 34569, "ELEMENT_SET_NO": 999, "REV_AT_EPOCH": 87112, "BSTAR": 0.00038517693, "MEAN_MOTION_DOT": 9.95e-06, "MEAN_MOTION_DDOT": 0}, "tle": {"line1": "1 34569U 93036VF  25356.85948037  .00000995  00000+0  38518-3 0  9993", "line2": "2 34569  73.9894 179.8374 0157771   5.9127  56.4739 14.24776526871127"}}, "geometry": {"type": "Point", "coordinates": [113.77732811118781, -72.45080761717779]}}, {"type": "Feature", "properties": {"norad_id": 34570, "name": "COSMOS 2251 DEB", "group": "cosmos-2251-debris", "lat": -20.91029972365065, "lon": -166.4342340994128, "alt_km": 924.7664079518518, "timestamp": "2025-12-23T07:45:09.799753+00:00", "meta": {"OBJECT_NAME": "COSMOS 2251 DEB", "OBJECT_ID": "1993-036VG", "EPOCH": "2025-12-22T13:07:20.317152", "MEAN_MOTION": 13.99835506, "ECCENTRICITY": 0.01903579, "INCLINATION": 73.9565, "RA_OF_ASC_NODE": 201.2273, "ARG_OF_PERICENTER": 81.526, "MEAN_ANOMALY": 308.5079, "EPHEMERIS_TYPE": 0, "CLASSIFICATION_TYPE": "U", "NORAD_CAT_ID": 34570, "ELEMENT_SET_NO": 999, "REV_AT_EPOCH": 85738, "BSTAR": 0.00043673475, "MEAN_MOTION_DOT": 7.26e-06, "MEAN_MOTION_DDOT": 0}, "tle": {"line1": "1 34570U 93036VG  25356.54676293  .00000726  00000+0  43673-3 0  9993", "line2": "2 34570  73.9565 201.2273 0190357  81.5260 308.5079 13.99835506857382"}}, "geometry": {"type": "Point", "coordinates": [-166.4342340994128, -20.91029972365065]}}]}